satname,norad_id,inclination_deg,eccentricity,mean_motion_rev_per_day,perigee_km,apogee_km,l1,l2
STARLINK-1316,45415,53.1552,0.0002402,15.40806479,442.0892295718095,445.36645344166845,1 45415U 20019BH  26179.78969568  .00054448  00000+0  13093-2 0  9996,2 45415  53.1552 329.1329 0002402 157.4924 202.6187 15.40806479347061
STARLINK-1286,45417,53.0458,0.0003945,15.66469472,366.35413166708713,371.67763529215244,1 45417U 20019BK  26179.74490234  .00057819  00000+0  54615-3 0  9994,2 45417  53.0458 311.7285 0003945 322.8709  37.2033 15.66469472347537
STARLINK-1308,45419,53.046,0.0005437,15.67820513,361.4728492512313,368.805487756862,1 45419U 20019BM  26179.68715147  .00048360  00000+0  43371-3 0  9990,2 45419  53.0460 331.1845 0005437  99.5808 260.5822 15.67820513347003
STARLINK-1329,45531,53.0394,0.0002757,15.76162252,339.4733349145572,343.1784467525631,1 45531U 20025A   26179.51037989  .00068632  00000+0  43044-3 0  9996,2 45531  53.0394 254.5648 0002757 330.0169  30.0692 15.76162252342849
STARLINK-1338,45532,53.0434,0.0002241,15.73231195,348.1615354139394,351.1769381692693,1 45532U 20025B   26179.53034294  .00058528  00000+0  41788-3 0  9991,2 45532  53.0434 261.7913 0002241  52.1921 307.9299 15.73231195342744
STARLINK-1350,45535,53.0699,0.0001389,15.39021226,448.05407357652257,449.95065289162994,1 45535U 20025E   26179.56044174  .00044067  00000+0  11271-2 0  9991,2 45535  53.0699 231.3843 0001389  42.3884 317.7226 15.39021226343212
STARLINK-1362,45538,53.1577,0.0003481,15.39284396,445.84793168171564,450.6004443408092,1 45538U 20025H   26179.72169222  .00079524  00000+0  19990-2 0  9996,2 45538  53.1577 302.0418 0003481 276.9786  83.0823 15.39284396342221
STARLINK-1368,45540,53.1573,0.0002334,15.39407841,446.2660586800266,449.4524337277544,1 45540U 20025K   26179.73333715  .00049102  00000+0  12382-2 0  9997,2 45540  53.1573 302.3374 0002334 269.4020  90.6717 15.39407841342215
STARLINK-1371,45542,53.0437,0.0001807,15.7044755,356.39983995444163,358.8341414466813,1 45542U 20025M   26179.49372491  .00051179  00000+0  41184-3 0  9996,2 45542  53.0437 272.2904 0001807  46.3155 313.8011 15.70447550342598
STARLINK-1372,45543,53.1566,0.0001412,15.39784551,445.7822023005783,447.70954922469355,1 45543U 20025N   26179.75051382  .00056418  00000+0  14024-2 0  9992,2 45543  53.1566 301.6857 0001412 264.2786  95.8057 15.39784551341327
STARLINK-1373,45544,53.0441,0.0002101,15.72190276,351.2243465505653,354.0526184083037,1 45544U 20025P   26179.53917220  .00052245  00000+0  39066-3 0  9999,2 45544  53.0441 266.8810 0002101  38.7836 321.3332 15.72190276342670
STARLINK-1327,45555,53.0391,0.0001979,15.73827953,346.6373506529826,349.29954318887394,1 45555U 20025AA  26179.46776162  .00062311  00000+0  43321-3 0  9995,2 45555  53.0391 244.5443 0001979  56.1348 303.9859 15.73827953342978
STARLINK-1356,45564,53.042,0.0003499,15.66970962,365.2159188013866,369.93656892944455,1 45564U 20025AK  26179.60448483  .00043020  00000+0  40032-3 0  9995,2 45564  53.0420 257.6193 0003499   8.7713 351.3362 15.66970962342805
STARLINK-1357,45565,53.0412,0.0001597,15.71870837,352.47529631926864,354.62539725783336,1 45565U 20025AL  26179.38542026  .00055215  00000+0  41807-3 0  9999,2 45565  53.0412 214.7357 0001597 163.6660 196.4410 15.71870837343395
STARLINK-1361,45567,53.0404,0.0002181,15.70498116,356.0033708769024,358.94144370036247,1 45567U 20025AN  26179.91337175  .00054146  00000+0  43436-3 0  9999,2 45567  53.0404 254.3302 0002181  56.3247 303.7977 15.70498116342886
STARLINK-1376,45570,53.1565,0.0001041,15.40306352,444.49412718519125,445.91474687238133,1 45570U 20025AR  26179.65698339  .00049198  00000+0  12045-2 0  9998,2 45570  53.1565 278.4673 0001041 276.8520  83.2366 15.40306352342546
STARLINK-1320,45572,53.036,0.0007704,15.94025122,285.894237473196,296.1700933232405,1 45572U 20025AT  26179.91668981  .00251475  35458-4  67203-3 0  9999,2 45572  53.0360 148.0800 0007704  51.3392 245.9925 15.94025122  5961
STARLINK-1321,45573,53.0404,0.0001819,15.70963949,354.91585028789723,357.36578055714745,1 45573U 20025AU  26179.59752994  .00050702  00000+0  39938-3 0  9996,2 45573  53.0404 239.7067 0001819  63.5393 296.5810 15.70963949342759
STARLINK-1331,45578,53.0444,0.0001577,15.70722854,355.7678032889653,357.89201185161346,1 45578U 20025AZ  26179.81441000  .00051275  00000+0  40791-3 0  9994,2 45578  53.0444 245.5765 0001577  59.4182 300.6991 15.70722854343003
STARLINK-1333,45580,53.1568,0.0002582,15.37216915,452.57941660553115,456.10770956830856,1 45580U 20025BB  26179.55102444  .00071619  00000+0  19287-2 0  9993,2 45580  53.1568 280.9302 0002582 317.4630  42.6173 15.37216915342504
STARLINK-1335,45581,53.1529,0.0002187,15.38940233,447.7487507181895,450.7350462483855,1 45581U 20025BC  26179.55777800  .00048656  00000+0  12460-2 0  9999,2 45581  53.1529 277.3639 0002187 249.0933 110.9837 15.38940233342540
STARLINK-1337,45582,53.0411,0.0001785,15.77685773,335.80069466279565,338.1979983384963,1 45582U 20025BD  26179.86939655  .00080546  00000+0  47099-3 0  9993,2 45582  53.0411 233.2286 0001785  78.4930 281.6290 15.77685773343169
STARLINK-1347,45586,53.0352,0.0001481,15.70780406,355.6679735238049,357.6628219940221,1 45586U 20025BH  26179.37143943  .00040412  00000+0  32213-3 0  9990,2 45586  53.0352 207.1390 0001481  30.0298 330.0803 15.70780406343483
STARLINK-1364,45589,53.04,0.0003678,15.71637856,351.7394452961362,356.6917638720679,1 45589U 20025BL  26179.43254939  .00051646  00000+0  39528-3 0  9995,2 45589  53.0400 243.4279 0003678   6.9032 353.2035 15.71637856342986
STARLINK-1365,45590,53.0447,0.000121,15.67164264,366.2053679236824,367.8376962884531,1 45590U 20025BM  26179.97397698  .00044848  00000+0  41385-3 0  9996,2 45590  53.0447 276.0627 0001210  43.6260 316.4851 15.67164264342596
STARLINK-1443,45660,53.1337,0.0001505,15.34258424,462.0944564818974,464.153676062846,1 45660U 20035D   26179.51931439  .00043126  00000+0  12859-2 0  9993,2 45660  53.1337 270.1517 0001505  29.7304 330.3783 15.34258424335729
STARLINK-1446,45663,53.0189,0.0002107,15.48856032,418.6390156530133,421.50378067199836,1 45663U 20035G   26179.31579472  .00034508  00000+0  63567-3 0  9996,2 45663  53.0189 191.6700 0002107 334.1325  25.9576 15.48856032336780
STARLINK-1448,45665,53.0402,0.0002175,15.75052709,343.01902655236154,345.943365467625,1 45665U 20035J   26179.95909055  .00072630  00000+0  47767-3 0  9994,2 45665  53.0402 228.0691 0002175  64.0322 296.0921 15.75052709336329
STARLINK-1451,45668,53.0512,4.9e-05,15.15211145,519.9995910659682,520.6756415783666,1 45668U 20035M   26179.48106760  .00024957  00000+0  13246-2 0  9990,2 45668  53.0512 283.8178 0000490 312.2881  47.8070 15.15211145335511
STARLINK-1452,45669,53.0213,0.0007642,15.62614747,374.9427865350808,385.27208733249154,1 45669U 20035N   26179.46969537  .00094996  00000+0  10355-2 0  9996,2 45669  53.0213 207.1446 0007642  17.0732 343.0536 15.62614747336581
STARLINK-1453,45670,53.036,0.0001593,15.7545292,342.2719220068493,344.41338542452195,1 45670U 20035P   26179.92130415  .00083820  00000+0  54042-3 0  9990,2 45670  53.0360 188.4710 0001593  84.3218 275.7982 15.75452920336770
STARLINK-1454,45671,53.0413,0.0001499,15.73522135,347.8315352397558,349.848282917098,1 45671U 20035Q   26179.54113207  .00066206  00000+0  46588-3 0  9994,2 45671  53.0413 231.6251 0001499  60.6841 299.4327 15.73522135336236
STARLINK-1456,45673,53.0396,0.0001474,15.70259593,357.16155499303295,359.1474137226214,1 45673U 20035S   26179.53325886  .00051963  00000+0  42132-3 0  9998,2 45673  53.0396 226.5234 0001474  46.9172 313.1968 15.70259593336326
STARLINK-1458,45675,53.0431,0.000402,15.60942814,382.21367965250556,387.6511874770922,1 45675U 20035U   26179.47978564  .00063831  00000+0  74786-3 0  9997,2 45675  53.0431 242.7059 0004020   7.7059 352.4015 15.60942814336055
STARLINK-1460,45676,53.1559,0.0003348,15.37142087,452.2777091002663,456.85288655889326,1 45676U 20035V   26179.52904485  .00095197  00000+0  25583-2 0  9995,2 45676  53.1559 268.2490 0003348 319.7401  40.3354 15.37142087335718
STARLINK-1392,45677,53.1524,0.0004115,15.40503765,441.8139262070363,447.4290564453986,1 45677U 20035W   26179.95556996  .00050767  00000+0  12341-2 0  9995,2 45677  53.1524 264.3628 0004115 327.8345  32.2408 15.40503765335843
STARLINK-1394,45679,53.0374,0.0001384,15.690086,360.80183818220485,362.6674346511654,1 45679U 20035Y   26179.79923106  .00044219  00000+0  37863-3 0  9992,2 45679  53.0374 215.5829 0001384  63.1179 296.9979 15.69008600336491
STARLINK-1402,45685,53.0384,0.0005448,15.60745203,381.8184530275794,389.1881154813027,1 45685U 20035AE  26179.78177150  .00070416  00000+0  82974-3 0  9999,2 45685  53.0384 207.6729 0005448 288.6543  71.3877 15.60745203336618
STARLINK-1404,45686,53.1549,0.000402,15.46557859,424.06886819115334,429.5400411206965,1 45686U 20035AF  26179.60423400  .00027598  00000+0  55268-3 0  9992,2 45686  53.1549 246.7288 0004020 313.1022  46.9649 15.46557859336064
STARLINK-1413,45689,53.1554,0.0003908,15.36970799,452.4025178202737,457.74335470645656,1 45689U 20035AJ  26179.63363574  .00052311  00000+0  14263-2 0  9993,2 45689  53.1554 252.4106 0003908 331.5798  28.4992 15.36970799335903
STARLINK-1417,45693,53.0515,0.0002429,15.17816711,510.7667722253145,514.1142147716564,1 45693U 20035AN  26179.93952854  .00027785  00000+0  13672-2 0  9996,2 45693  53.0515 268.0047 0002429 229.2156 130.8627 15.17816711335768
STARLINK-1420,45695,53.0426,0.0001758,15.728074,349.6947658303534,352.0606874082332,1 45695U 20035AQ  26179.76999804  .00061216  00000+0  44469-3 0  9991,2 45695  53.0426 198.4217 0001758  88.5911 271.5309 15.72807400336739
STARLINK-1422,45696,53.154,0.0001385,15.38702318,448.9999596255393,450.89133851933275,1 45696U 20035AR  26179.50014621  .00031262  00000+0  81229-3 0  9992,2 45696  53.1540 252.9124 0001385  64.1295 295.9852 15.38702318335963
